{
  "norad_id": 60937,
  "name": "STARLINK-32259",
  "history": [
    {
      "epoch": "2026-04-13T00:19:14.374848Z",
      "apogee_km": 476.15869840136656,
      "perigee_km": 474.3204857318424,
      "latitude_deg": -8.713799150010892e-07,
      "longitude_deg": 124.38726586246955,
      "height_km": 476.0724351580093,
      "semi_major_axis_km": 6853.376592066604,
      "eccentricity": 0.00013411,
      "inclination_deg": 53.1616,
      "raan_deg": 330.4074,
      "arg_perigee_deg": 85.9253,
      "mean_anomaly_deg": 274.1901,
      "mean_motion_rev_day": 15.30191787
    },
    {
      "epoch": "2026-04-14T20:12:43.691040Z",
      "apogee_km": 476.1039760515587,
      "perigee_km": 474.3536264259228,
      "latitude_deg": -4.029059087882203e-06,
      "longitude_deg": 175.71615566404745,
      "height_km": 476.12574733679855,
      "semi_major_axis_km": 6853.3658012387405,
      "eccentricity": 0.0001277,
      "inclination_deg": 53.1599,
      "raan_deg": 321.911,
      "arg_perigee_deg": 89.9275,
      "mean_anomaly_deg": 270.1872,
      "mean_motion_rev_day": 15.30195401
    },
    {
      "epoch": "2026-04-15T19:43:32.045088Z",
      "apogee_km": 476.22497037978883,
      "perigee_km": 474.2676441072399,
      "latitude_deg": -1.7164831786901832e-06,
      "longitude_deg": 177.49582174494796,
      "height_km": 476.0822344325586,
      "semi_major_axis_km": 6853.383307243514,
      "eccentricity": 0.0001428,
      "inclination_deg": 53.1611,
      "raan_deg": 317.3578,
      "arg_perigee_deg": 86.3649,
      "mean_anomaly_deg": 273.7515,
      "mean_motion_rev_day": 15.30189538
    },
    {
      "epoch": "2026-04-16T20:48:22.752000Z",
      "apogee_km": 476.1196477057674,
      "perigee_km": 474.3309201496613,
      "latitude_deg": 1.3605156102683246e-05,
      "longitude_deg": 155.40372647510222,
      "height_km": 476.2478329508279,
      "semi_major_axis_km": 6853.362283927714,
      "eccentricity": 0.0001305,
      "inclination_deg": 53.1596,
      "raan_deg": 312.507,
      "arg_perigee_deg": 98.0053,
      "mean_anomaly_deg": 262.1096,
      "mean_motion_rev_day": 15.30196579
    },
    {
      "epoch": "2026-04-17T20:19:10.873632Z",
      "apogee_km": 476.01688882529197,
      "perigee_km": 474.4500712661438,
      "latitude_deg": 4.3313971827408135e-05,
      "longitude_deg": 157.18558336693903,
      "height_km": 476.0856091565202,
      "semi_major_axis_km": 6853.370480045717,
      "eccentricity": 0.00011431,
      "inclination_deg": 53.1595,
      "raan_deg": 307.955,
      "arg_perigee_deg": 86.6294,
      "mean_anomaly_deg": 273.4838,
      "mean_motion_rev_day": 15.30193834
    },
    {
      "epoch": "2026-04-18T05:43:29.940672Z",
      "apogee_km": 476.0330955494228,
      "perigee_km": 474.4200878944757,
      "latitude_deg": -4.0590577367893185e-06,
      "longitude_deg": 13.899640448985904,
      "height_km": 476.0556269340169,
      "semi_major_axis_km": 6853.363591721949,
      "eccentricity": 0.00011768,
      "inclination_deg": 53.1596,
      "raan_deg": 306.1348,
      "arg_perigee_deg": 85.0828,
      "mean_anomaly_deg": 275.0307,
      "mean_motion_rev_day": 15.30196141
    },
    {
      "epoch": "2026-04-19T19:20:46.942368Z",
      "apogee_km": 476.03372821372795,
      "perigee_km": 474.44237452679954,
      "latitude_deg": -3.237311440841368e-05,
      "longitude_deg": 160.75012237275592,
      "height_km": 475.860142552716,
      "semi_major_axis_km": 6853.3750513702635,
      "eccentricity": 0.0001161,
      "inclination_deg": 53.1586,
      "raan_deg": 298.8512,
      "arg_perigee_deg": 69.6971,
      "mean_anomaly_deg": 290.4154,
      "mean_motion_rev_day": 15.30192303
    },
    {
      "epoch": "2026-04-19T22:28:53.426208Z",
      "apogee_km": 476.0328935402995,
      "perigee_km": 474.4483926292178,
      "latitude_deg": 2.234877540070673e-05,
      "longitude_deg": 112.9883915854182,
      "height_km": 475.8615546612356,
      "semi_major_axis_km": 6853.377643084758,
      "eccentricity": 0.0001156,
      "inclination_deg": 53.1595,
      "raan_deg": 298.2452,
      "arg_perigee_deg": 69.5069,
      "mean_anomaly_deg": 290.6056,
      "mean_motion_rev_day": 15.30191435
    },
    {
      "epoch": "2026-04-21T18:22:22.397664Z",
      "apogee_km": 476.122162080841,
      "perigee_km": 474.31150599788725,
      "latitude_deg": -7.627364606530841e-05,
      "longitude_deg": 164.320844451822,
      "height_km": 475.84103583914623,
      "semi_major_axis_km": 6853.353834039363,
      "eccentricity": 0.0001321,
      "inclination_deg": 53.1624,
      "raan_deg": 289.751,
      "arg_perigee_deg": 72.3722,
      "mean_anomaly_deg": 287.7422,
      "mean_motion_rev_day": 15.30199409
    },
    {
      "epoch": "2026-04-22T17:53:07.509120Z",
      "apogee_km": 476.12143947768345,
      "perigee_km": 474.1737359978488,
      "latitude_deg": 3.54439655994681e-05,
      "longitude_deg": 166.11603552080942,
      "height_km": 476.06221334121085,
      "semi_major_axis_km": 6853.284587737766,
      "eccentricity": 0.0001421,
      "inclination_deg": 53.1611,
      "raan_deg": 285.1997,
      "arg_perigee_deg": 90.9789,
      "mean_anomaly_deg": 269.1375,
      "mean_motion_rev_day": 15.30222601
    },
    {
      "epoch": "2026-04-22T21:01:16.502880Z",
      "apogee_km": 476.07866031786034,
      "perigee_km": 474.4530331626138,
      "latitude_deg": -4.07363647481944e-06,
      "longitude_deg": 118.34194773456784,
      "height_km": 476.32317274319144,
      "semi_major_axis_km": 6853.402846740237,
      "eccentricity": 0.0001186,
      "inclination_deg": 53.1612,
      "raan_deg": 284.5919,
      "arg_perigee_deg": 101.2797,
      "mean_anomaly_deg": 258.8337,
      "mean_motion_rev_day": 15.30182994
    },
    {
      "epoch": "2026-04-24T20:02:52.085184Z",
      "apogee_km": 476.05732374920535,
      "perigee_km": 474.44814783924085,
      "latitude_deg": 6.565220149853148e-05,
      "longitude_deg": 121.9121254424392,
      "height_km": 476.177172912116,
      "semi_major_axis_km": 6853.389735794223,
      "eccentricity": 0.0001174,
      "inclination_deg": 53.1603,
      "raan_deg": 275.4916,
      "arg_perigee_deg": 91.867,
      "mean_anomaly_deg": 268.2466,
      "mean_motion_rev_day": 15.30187385
    },
    {
      "epoch": "2026-04-25T19:33:40.517856Z",
      "apogee_km": 476.12483630509905,
      "perigee_km": 474.3566648454498,
      "latitude_deg": 6.8806053197843205e-06,
      "longitude_deg": 123.69441543733137,
      "height_km": 476.22208279023715,
      "semi_major_axis_km": 6853.377750575274,
      "eccentricity": 0.000129,
      "inclination_deg": 53.1607,
      "raan_deg": 270.9414,
      "arg_perigee_deg": 95.4005,
      "mean_anomaly_deg": 264.7143,
      "mean_motion_rev_day": 15.30191399
    },
    {
      "epoch": "2026-04-26T17:30:25.728480Z",
      "apogee_km": 476.503998247269,
      "perigee_km": 473.98044694992404,
      "latitude_deg": 3.502752542740522e-06,
      "longitude_deg": 149.35674996317854,
      "height_km": 475.5058717277135,
      "semi_major_axis_km": 6853.379222598596,
      "eccentricity": 0.00018411,
      "inclination_deg": 53.1599,
      "raan_deg": 266.6934,
      "arg_perigee_deg": 59.838,
      "mean_anomaly_deg": 300.2803,
      "mean_motion_rev_day": 15.30190906
    },
    {
      "epoch": "2026-04-27T18:35:16.821600Z",
      "apogee_km": 476.1604545561622,
      "perigee_km": 474.3415653783177,
      "latitude_deg": -3.997003020138588e-05,
      "longitude_deg": 127.2600960748764,
      "height_km": 476.3386541385416,
      "semi_major_axis_km": 6853.38800996724,
      "eccentricity": 0.0001327,
      "inclination_deg": 53.1606,
      "raan_deg": 261.8397,
      "arg_perigee_deg": 102.0297,
      "mean_anomaly_deg": 258.0852,
      "mean_motion_rev_day": 15.30187963
    },
    {
      "epoch": "2026-04-28T16:32:01.392000Z",
      "apogee_km": 476.03491678381124,
      "perigee_km": 474.42985767332266,
      "latitude_deg": 2.7896769016410307e-05,
      "longitude_deg": 152.9262588629296,
      "height_km": 476.2782347450692,
      "semi_major_axis_km": 6853.369387228567,
      "eccentricity": 0.0001171,
      "inclination_deg": 53.16,
      "raan_deg": 257.5928,
      "arg_perigee_deg": 100.5995,
      "mean_anomaly_deg": 259.5138,
      "mean_motion_rev_day": 15.301942
    },
    {
      "epoch": "2026-04-29T14:28:46.307136Z",
      "apogee_km": 475.91693571637734,
      "perigee_km": 474.5544852215362,
      "latitude_deg": 1.563776920668638e-05,
      "longitude_deg": 178.59102132235287,
      "height_km": 476.3313478622628,
      "semi_major_axis_km": 6853.372710468956,
      "eccentricity": 9.94e-05,
      "inclination_deg": 53.1604,
      "raan_deg": 253.346,
      "arg_perigee_deg": 106.8178,
      "mean_anomaly_deg": 253.2932,
      "mean_motion_rev_day": 15.30193087
    },
    {
      "epoch": "2026-04-30T15:33:37.511712Z",
      "apogee_km": 475.9501738651952,
      "perigee_km": 474.51781932690665,
      "latitude_deg": 6.239000101693302e-05,
      "longitude_deg": 156.49386799387605,
      "height_km": 475.9955300424035,
      "semi_major_axis_km": 6853.370996596051,
      "eccentricity": 0.0001045,
      "inclination_deg": 53.1602,
      "raan_deg": 248.4922,
      "arg_perigee_deg": 78.9811,
      "mean_anomaly_deg": 281.1308,
      "mean_motion_rev_day": 15.30193661
    },
    {
      "epoch": "2026-05-02T08:19:00.230880Z",
      "apogee_km": 476.30700290139976,
      "perigee_km": 474.2454961959347,
      "latitude_deg": 2.899995996326507e-05,
      "longitude_deg": -104.41562457500878,
      "height_km": 476.3469763788019,
      "semi_major_axis_km": 6853.4132495486665,
      "eccentricity": 0.0001504,
      "inclination_deg": 53.1588,
      "raan_deg": 240.6012,
      "arg_perigee_deg": 99.6673,
      "mean_anomaly_deg": 260.4498,
      "mean_motion_rev_day": 15.3017951
    }
  ]
}